[{"OBJECT_NAME":"LEMUR-2-GREENBERG","OBJECT_ID":"2017-042N","EPOCH":"2026-03-09T11:05:17.256192","MEAN_MOTION":15.27971352,"ECCENTRICITY":0.00091572,"INCLINATION":97.3781,"RA_OF_ASC_NODE":249.8007,"ARG_OF_PERICENTER":4.0119,"MEAN_ANOMALY":356.1192,"EPHEMERIS_TYPE":0,"CLASSIFICATION_TYPE":"U","NORAD_CAT_ID":42837,"ELEMENT_SET_NO":999,"REV_AT_EPOCH":47314,"BSTAR":0.00072539172,"MEAN_MOTION_DOT":0.00019778,"MEAN_MOTION_DDOT":0},{"OBJECT_NAME":"STARLINK-6188","OBJECT_ID":"2023-061C","EPOCH":"2026-03-09T22:00:01.999584","MEAN_MOTION":15.15577604,"ECCENTRICITY":0.0001913,"INCLINATION":42.9997,"RA_OF_ASC_NODE":195.6439,"ARG_OF_PERICENTER":287.7673,"MEAN_ANOMALY":148.4713,"EPHEMERIS_TYPE":0,"CLASSIFICATION_TYPE":"U","NORAD_CAT_ID":56376,"ELEMENT_SET_NO":999,"REV_AT_EPOCH":577,"BSTAR":0.061946458,"MEAN_MOTION_DOT":0.01297316,"MEAN_MOTION_DDOT":0}]
